[{"OBJECT_NAME":"ZHUHAI-1 03C","OBJECT_ID":"2019-060D","EPOCH":"2026-03-09T23:14:25.268928","MEAN_MOTION":15.71109528,"ECCENTRICITY":0.00111308,"INCLINATION":97.5515,"RA_OF_ASC_NODE":231.2826,"ARG_OF_PERICENTER":267.4607,"MEAN_ANOMALY":92.5381,"EPHEMERIS_TYPE":0,"CLASSIFICATION_TYPE":"U","NORAD_CAT_ID":44537,"ELEMENT_SET_NO":999,"REV_AT_EPOCH":36152,"BSTAR":0.00082474362,"MEAN_MOTION_DOT":0.00104963,"MEAN_MOTION_DDOT":0},{"OBJECT_NAME":"STARLINK-11540 [DTC]","OBJECT_ID":"2025-006L","EPOCH":"2026-03-09T06:20:10.973760","MEAN_MOTION":15.70996683,"ECCENTRICITY":0.00018148,"INCLINATION":42.9991,"RA_OF_ASC_NODE":142.6199,"ARG_OF_PERICENTER":226.9983,"MEAN_ANOMALY":133.0733,"EPHEMERIS_TYPE":0,"CLASSIFICATION_TYPE":"U","NORAD_CAT_ID":62564,"ELEMENT_SET_NO":999,"REV_AT_EPOCH":6653,"BSTAR":0.0017852151,"MEAN_MOTION_DOT":0.0023682,"MEAN_MOTION_DDOT":0}]
